STARLINK-2022           
1 47643U 21012Z   24254.51353031  .00027248  00000+0  18395-2 0  9998
2 47643  53.0561 339.0084 0001818  82.1833 277.9362 15.06432306197571
